{
    "links": {
        "self": "http://www.neowsapp.com/rest/v1/neo/3717067?api_key=iIulBulltgU6a56xZRHN4H3l9WmuAYTsLGpBGhQ2"
    },
    "id": "3717067",
    "neo_reference_id": "3717067",
    "name": "(2015 HH11)",
    "designation": "2015 HH11",
    "nasa_jpl_url": "http://ssd.jpl.nasa.gov/sbdb.cgi?sstr=3717067",
    "absolute_magnitude_h": 25.6,
    "estimated_diameter": {
        "kilometers": {
            "estimated_diameter_min": 0.0201629919,
            "estimated_diameter_max": 0.0450858206
        },
        "meters": {
            "estimated_diameter_min": 20.1629919443,
            "estimated_diameter_max": 45.0858206172
        },
        "miles": {
            "estimated_diameter_min": 0.0125286985,
            "estimated_diameter_max": 0.0280150214
        },
        "feet": {
            "estimated_diameter_min": 66.1515504905,
            "estimated_diameter_max": 147.9193637137
        }
    },
    "is_potentially_hazardous_asteroid": false,
    "close_approach_data": [
        {
            "close_approach_date": "2015-04-06",
            "close_approach_date_full": "2015-Apr-06 01:37",
            "epoch_date_close_approach": 1428284220000,
            "relative_velocity": {
                "kilometers_per_second": "8.7517360157",
                "kilometers_per_hour": "31506.2496564595",
                "miles_per_hour": "19576.7582934817"
            },
            "miss_distance": {
                "astronomical": "0.1177011272",
                "lunar": "45.7857384808",
                "kilometers": "17607837.925719064",
                "miles": "10941003.1459845232"
            },
            "orbiting_body": "Earth"
        }
    ],
    "orbital_data": {
        "orbit_id": "4",
        "orbit_determination_date": "2018-02-10 07:06:36",
        "first_observation_date": "2015-04-19",
        "last_observation_date": "2015-04-23",
        "data_arc_in_days": 4,
        "observations_used": 18,
        "orbit_uncertainty": "8",
        "minimum_orbit_intersection": ".114764",
        "jupiter_tisserand_invariant": "4.548",
        "epoch_osculation": "2457133.5",
        "eccentricity": ".2811697773410985",
        "semi_major_axis": "1.458550033524022",
        "inclination": "15.21173624189736",
        "ascending_node_longitude": "26.96229423009057",
        "orbital_period": "643.3990632193064",
        "perihelion_distance": "1.048449845357221",
        "perihelion_argument": "129.8363753969444",
        "aphelion_distance": "1.868650221690823",
        "perihelion_time": "2457078.831697637897",
        "mean_anomaly": "30.58846363854408",
        "mean_motion": ".5595283247673798",
        "equinox": "J2000",
        "orbit_class": {
            "orbit_class_type": "AMO",
            "orbit_class_description": "Near-Earth asteroid orbits similar to that of 1221 Amor",
            "orbit_class_range": "1.017 AU < q (perihelion) < 1.3 AU"
        }
    },
    "is_sentry_object": false
}